ONEWEB-0295             
1 49084U 21075K   26025.04806621  .00000003  00000+0 -25158-4 0  9990
2 49084  87.9084  34.3169 0002148  95.7168 264.4209 13.17647707214748
ONEWEB-0296             
1 49085U 21075L   26024.98427740  .00000142  00000+0  36073-3 0  9994
2 49085  87.8939  19.0881 0002083  96.8111 263.3255 13.12440929215793
ONEWEB-0297             
1 49086U 21075M   26024.93852965 -.00000359  00000+0 -10338-2 0  9998
2 49086  87.8935  19.1255 0001906  86.8994 273.2352 13.12444461216397
ONEWEB-0298             
1 49087U 21075N   26025.28022639  .00000019  00000+0  15842-4 0  9993
2 49087  87.9088  34.2673 0001945  86.2464 273.8890 13.17646838214803
ONEWEB-0299             
1 49088U 21075P   26025.05396472  .00000019  00000+0  16623-4 0  9996
2 49088  87.9097  34.2787 0002011  91.0619 269.0743 13.17651067214759
ONEWEB-0300             
1 49089U 21075Q   26024.93090971 -.00000293  00000+0 -85019-3 0  9998
2 49089  87.8933  19.0927 0001902  76.2822 283.8519 13.12445571216410
ONEWEB-0301             
1 49090U 21075R   26024.99104876 -.00000128  00000+0 -39014-3 0  9997
2 49090  87.8933  19.0811 0001800  74.9980 285.1348 13.12440020215789
ONEWEB-0302             
1 49091U 21075S   26025.20622210  .00000179  00000+0  46115-3 0  9994
2 49091  87.8937  19.0467 0001772  99.0054 261.1276 13.12441895215795
ONEWEB-0304             
1 49092U 21075T   26025.02866782 -.00000053  00000+0 -16940-3 0  9995
2 49092  87.9095  34.3140 0001909  92.1114 268.0236 13.17649533214721
ONEWEB-0305             
1 49093U 21075U   26025.24972720  .00000057  00000+0  11473-3 0  9998
2 49093  87.9096  34.2482 0002252  93.0417 267.0972 13.17650445214785
ONEWEB-0308             
1 49094U 21075V   26024.43706869  .00000523  00000+0  14197-2 0  9991
2 49094  87.8936  19.1932 0001811  86.7911 273.3425 13.12441290215705
ONEWEB-0309             
1 49095U 21075W   26025.25308973 -.00000003  00000+0 -39709-4 0  9990
2 49095  87.9098  34.2626 0001764 104.4621 255.6706 13.17651072214752
ONEWEB-0310             
1 49096U 21075X   26024.98596891  .00000048  00000+0  98007-4 0  9991
2 49096  87.8929  19.1175 0001749  88.2382 271.8947 13.12440406216405
ONEWEB-0311             
1 49097U 21075Y   26025.03204556  .00000004  00000+0 -22768-4 0  9997
2 49097  87.9093  34.3018 0002172  89.2754 270.8626 13.17649161214774
ONEWEB-0312             
1 49098U 21075Z   26025.27502631 -.00000014  00000+0 -70347-4 0  9997
2 49098  87.9084  34.2750 0002066  98.5264 261.6102 13.17650964214789
ONEWEB-0313             
1 49099U 21075AA  26025.05214719  .00000049  00000+0  94023-4 0  9994
2 49099  87.9081  34.3259 0001948  90.1838 269.9517 13.17650964214742
ONEWEB-0314             
1 49100U 21075AB  26024.41104313  .00000005  00000+0 -20486-4 0  9999
2 49100  87.9096  34.4124 0002149  99.0987 261.0387 13.17650861214632
