[{"OBJECT_NAME":"ONEWEB-0295","OBJECT_ID":"2021-075K","EPOCH":"2026-01-25T01:09:12.920544","MEAN_MOTION":13.17647707,"ECCENTRICITY":0.00021489,"INCLINATION":87.9084,"RA_OF_ASC_NODE":34.3169,"ARG_OF_PERICENTER":95.7168,"MEAN_ANOMALY":264.4209,"EPHEMERIS_TYPE":0,"CLASSIFICATION_TYPE":"U","NORAD_CAT_ID":49084,"ELEMENT_SET_NO":999,"REV_AT_EPOCH":21474,"BSTAR":-2.5157522e-5,"MEAN_MOTION_DOT":3.0e-8,"MEAN_MOTION_DDOT":0},{"OBJECT_NAME":"ONEWEB-0296","OBJECT_ID":"2021-075L","EPOCH":"2026-01-24T23:37:21.567360","MEAN_MOTION":13.12440929,"ECCENTRICITY":0.00020833,"INCLINATION":87.8939,"RA_OF_ASC_NODE":19.0881,"ARG_OF_PERICENTER":96.8111,"MEAN_ANOMALY":263.3255,"EPHEMERIS_TYPE":0,"CLASSIFICATION_TYPE":"U","NORAD_CAT_ID":49085,"ELEMENT_SET_NO":999,"REV_AT_EPOCH":21579,"BSTAR":0.00036073442,"MEAN_MOTION_DOT":1.42e-6,"MEAN_MOTION_DDOT":0},{"OBJECT_NAME":"ONEWEB-0297","OBJECT_ID":"2021-075M","EPOCH":"2026-01-24T22:31:28.961760","MEAN_MOTION":13.12444461,"ECCENTRICITY":0.0001906,"INCLINATION":87.8935,"RA_OF_ASC_NODE":19.1255,"ARG_OF_PERICENTER":86.8994,"MEAN_ANOMALY":273.2352,"EPHEMERIS_TYPE":0,"CLASSIFICATION_TYPE":"U","NORAD_CAT_ID":49086,"ELEMENT_SET_NO":999,"REV_AT_EPOCH":21639,"BSTAR":-0.0010338,"MEAN_MOTION_DOT":-3.59e-6,"MEAN_MOTION_DDOT":0},{"OBJECT_NAME":"ONEWEB-0298","OBJECT_ID":"2021-075N","EPOCH":"2026-01-25T06:43:31.560096","MEAN_MOTION":13.17646838,"ECCENTRICITY":0.00019458,"INCLINATION":87.9088,"RA_OF_ASC_NODE":34.2673,"ARG_OF_PERICENTER":86.2464,"MEAN_ANOMALY":273.889,"EPHEMERIS_TYPE":0,"CLASSIFICATION_TYPE":"U","NORAD_CAT_ID":49087,"ELEMENT_SET_NO":999,"REV_AT_EPOCH":21480,"BSTAR":1.5841991e-5,"MEAN_MOTION_DOT":1.9e-7,"MEAN_MOTION_DDOT":0},{"OBJECT_NAME":"ONEWEB-0299","OBJECT_ID":"2021-075P","EPOCH":"2026-01-25T01:17:42.551808","MEAN_MOTION":13.17651067,"ECCENTRICITY":0.00020119,"INCLINATION":87.9097,"RA_OF_ASC_NODE":34.2787,"ARG_OF_PERICENTER":91.0619,"MEAN_ANOMALY":269.0743,"EPHEMERIS_TYPE":0,"CLASSIFICATION_TYPE":"U","NORAD_CAT_ID":49088,"ELEMENT_SET_NO":999,"REV_AT_EPOCH":21475,"BSTAR":1.6622675e-5,"MEAN_MOTION_DOT":1.9e-7,"MEAN_MOTION_DDOT":0},{"OBJECT_NAME":"ONEWEB-0300","OBJECT_ID":"2021-075Q","EPOCH":"2026-01-24T22:20:30.598944","MEAN_MOTION":13.12445571,"ECCENTRICITY":0.0001902,"INCLINATION":87.8933,"RA_OF_ASC_NODE":19.0927,"ARG_OF_PERICENTER":76.2822,"MEAN_ANOMALY":283.8519,"EPHEMERIS_TYPE":0,"CLASSIFICATION_TYPE":"U","NORAD_CAT_ID":49089,"ELEMENT_SET_NO":999,"REV_AT_EPOCH":21641,"BSTAR":-0.00085019,"MEAN_MOTION_DOT":-2.93e-6,"MEAN_MOTION_DDOT":0},{"OBJECT_NAME":"ONEWEB-0301","OBJECT_ID":"2021-075R","EPOCH":"2026-01-24T23:47:06.612864","MEAN_MOTION":13.1244002,"ECCENTRICITY":0.00018002,"INCLINATION":87.8933,"RA_OF_ASC_NODE":19.0811,"ARG_OF_PERICENTER":74.998,"MEAN_ANOMALY":285.1348,"EPHEMERIS_TYPE":0,"CLASSIFICATION_TYPE":"U","NORAD_CAT_ID":49090,"ELEMENT_SET_NO":999,"REV_AT_EPOCH":21578,"BSTAR":-0.00039014075,"MEAN_MOTION_DOT":-1.28e-6,"MEAN_MOTION_DDOT":0},{"OBJECT_NAME":"ONEWEB-0302","OBJECT_ID":"2021-075S","EPOCH":"2026-01-25T04:56:57.589440","MEAN_MOTION":13.12441895,"ECCENTRICITY":0.00017721,"INCLINATION":87.8937,"RA_OF_ASC_NODE":19.0467,"ARG_OF_PERICENTER":99.0054,"MEAN_ANOMALY":261.1276,"EPHEMERIS_TYPE":0,"CLASSIFICATION_TYPE":"U","NORAD_CAT_ID":49091,"ELEMENT_SET_NO":999,"REV_AT_EPOCH":21579,"BSTAR":0.00046114605,"MEAN_MOTION_DOT":1.79e-6,"MEAN_MOTION_DDOT":0},{"OBJECT_NAME":"ONEWEB-0304","OBJECT_ID":"2021-075T","EPOCH":"2026-01-25T00:41:16.899648","MEAN_MOTION":13.17649533,"ECCENTRICITY":0.00019096,"INCLINATION":87.9095,"RA_OF_ASC_NODE":34.314,"ARG_OF_PERICENTER":92.1114,"MEAN_ANOMALY":268.0236,"EPHEMERIS_TYPE":0,"CLASSIFICATION_TYPE":"U","NORAD_CAT_ID":49092,"ELEMENT_SET_NO":999,"REV_AT_EPOCH":21472,"BSTAR":-0.00016940296,"MEAN_MOTION_DOT":-5.3e-7,"MEAN_MOTION_DDOT":0},{"OBJECT_NAME":"ONEWEB-0305","OBJECT_ID":"2021-075U","EPOCH":"2026-01-25T05:59:36.430080","MEAN_MOTION":13.17650445,"ECCENTRICITY":0.00022529,"INCLINATION":87.9096,"RA_OF_ASC_NODE":34.2482,"ARG_OF_PERICENTER":93.0417,"MEAN_ANOMALY":267.0972,"EPHEMERIS_TYPE":0,"CLASSIFICATION_TYPE":"U","NORAD_CAT_ID":49093,"ELEMENT_SET_NO":999,"REV_AT_EPOCH":21478,"BSTAR":0.00011472611,"MEAN_MOTION_DOT":5.7e-7,"MEAN_MOTION_DDOT":0},{"OBJECT_NAME":"ONEWEB-0308","OBJECT_ID":"2021-075V","EPOCH":"2026-01-24T10:29:22.734816","MEAN_MOTION":13.1244129,"ECCENTRICITY":0.00018115,"INCLINATION":87.8936,"RA_OF_ASC_NODE":19.1932,"ARG_OF_PERICENTER":86.7911,"MEAN_ANOMALY":273.3425,"EPHEMERIS_TYPE":0,"CLASSIFICATION_TYPE":"U","NORAD_CAT_ID":49094,"ELEMENT_SET_NO":999,"REV_AT_EPOCH":21570,"BSTAR":0.0014197379,"MEAN_MOTION_DOT":5.23e-6,"MEAN_MOTION_DDOT":0},{"OBJECT_NAME":"ONEWEB-0309","OBJECT_ID":"2021-075W","EPOCH":"2026-01-25T06:04:26.952672","MEAN_MOTION":13.17651072,"ECCENTRICITY":0.0001764,"INCLINATION":87.9098,"RA_OF_ASC_NODE":34.2626,"ARG_OF_PERICENTER":104.4621,"MEAN_ANOMALY":255.6706,"EPHEMERIS_TYPE":0,"CLASSIFICATION_TYPE":"U","NORAD_CAT_ID":49095,"ELEMENT_SET_NO":999,"REV_AT_EPOCH":21475,"BSTAR":-3.9708968e-5,"MEAN_MOTION_DOT":-3.0e-8,"MEAN_MOTION_DDOT":0},{"OBJECT_NAME":"ONEWEB-0310","OBJECT_ID":"2021-075X","EPOCH":"2026-01-24T23:39:47.713824","MEAN_MOTION":13.12440406,"ECCENTRICITY":0.00017493,"INCLINATION":87.8929,"RA_OF_ASC_NODE":19.1175,"ARG_OF_PERICENTER":88.2382,"MEAN_ANOMALY":271.8947,"EPHEMERIS_TYPE":0,"CLASSIFICATION_TYPE":"U","NORAD_CAT_ID":49096,"ELEMENT_SET_NO":999,"REV_AT_EPOCH":21640,"BSTAR":9.8006583e-5,"MEAN_MOTION_DOT":4.8e-7,"MEAN_MOTION_DDOT":0},{"OBJECT_NAME":"ONEWEB-0311","OBJECT_ID":"2021-075Y","EPOCH":"2026-01-25T00:46:08.736384","MEAN_MOTION":13.17649161,"ECCENTRICITY":0.00021721,"INCLINATION":87.9093,"RA_OF_ASC_NODE":34.3018,"ARG_OF_PERICENTER":89.2754,"MEAN_ANOMALY":270.8626,"EPHEMERIS_TYPE":0,"CLASSIFICATION_TYPE":"U","NORAD_CAT_ID":49097,"ELEMENT_SET_NO":999,"REV_AT_EPOCH":21477,"BSTAR":-2.2768164e-5,"MEAN_MOTION_DOT":4.0e-8,"MEAN_MOTION_DDOT":0},{"OBJECT_NAME":"ONEWEB-0312","OBJECT_ID":"2021-075Z","EPOCH":"2026-01-25T06:36:02.273184","MEAN_MOTION":13.17650964,"ECCENTRICITY":0.00020667,"INCLINATION":87.9084,"RA_OF_ASC_NODE":34.275,"ARG_OF_PERICENTER":98.5264,"MEAN_ANOMALY":261.6102,"EPHEMERIS_TYPE":0,"CLASSIFICATION_TYPE":"U","NORAD_CAT_ID":49098,"ELEMENT_SET_NO":999,"REV_AT_EPOCH":21478,"BSTAR":-7.0346908e-5,"MEAN_MOTION_DOT":-1.4e-7,"MEAN_MOTION_DDOT":0},{"OBJECT_NAME":"ONEWEB-0313","OBJECT_ID":"2021-075AA","EPOCH":"2026-01-25T01:15:05.517216","MEAN_MOTION":13.17650964,"ECCENTRICITY":0.0001948,"INCLINATION":87.9081,"RA_OF_ASC_NODE":34.3259,"ARG_OF_PERICENTER":90.1838,"MEAN_ANOMALY":269.9517,"EPHEMERIS_TYPE":0,"CLASSIFICATION_TYPE":"U","NORAD_CAT_ID":49099,"ELEMENT_SET_NO":999,"REV_AT_EPOCH":21474,"BSTAR":9.4022709e-5,"MEAN_MOTION_DOT":4.9e-7,"MEAN_MOTION_DDOT":0},{"OBJECT_NAME":"ONEWEB-0314","OBJECT_ID":"2021-075AB","EPOCH":"2026-01-24T09:51:54.126432","MEAN_MOTION":13.17650861,"ECCENTRICITY":0.00021491,"INCLINATION":87.9096,"RA_OF_ASC_NODE":34.4124,"ARG_OF_PERICENTER":99.0987,"MEAN_ANOMALY":261.0387,"EPHEMERIS_TYPE":0,"CLASSIFICATION_TYPE":"U","NORAD_CAT_ID":49100,"ELEMENT_SET_NO":999,"REV_AT_EPOCH":21463,"BSTAR":-2.0486296e-5,"MEAN_MOTION_DOT":5.0e-8,"MEAN_MOTION_DDOT":0}]
